{"fetched_at":"2026-03-30T06:02:59Z","count":15439,"tles":[{"name":"STARLINK-5137","line1":"1 53975U 22125M   26087.40353896  .00000443  00000+0  45885-4 0  9996","line2":"2 53975  53.2165 134.6886 0001151  92.4422 267.6702 15.08850545192227","category":"Starlink"}]}